NORAD_CAT_ID,OBJECT_NAME,OBJECT_TYPE,EPOCH,MEAN_MOTION,ECCENTRICITY,INCLINATION,RA_OF_ASC_NODE,ARG_OF_PERICENTER,MEAN_ANOMALY,BSTAR,MEAN_MOTION_DOT,MEAN_MOTION_DDOT,TLE_LINE0,TLE_LINE1,TLE_LINE2,SEMIMAJOR_AXIS,PERIOD,APOGEE,PERIGEE,DECAYED
52880.0,STARLINK-4186,PAYLOAD,2024-05-19 03:59:39,15.08848041,0.0001272,53.2163,94.835,91.0401,269.0737,0.00041793,6.371e-05,0.0,0 STARLINK-4186,1 52880U 22062BC  24140.16642866  .00006371  00000-0  41793-3 0  9999,2 52880  53.2163  94.8350 0001272  91.0401 269.0737 15.08848041106506,6917.856,95.437,540.601,538.841,0.0
52880.0,STARLINK-4186,PAYLOAD,2024-05-19 21:28:54,15.08836694,0.0001265,53.2166,91.5614,84.9592,275.1544,6.6909e-05,7.77e-06,0.0,0 STARLINK-4186,1 52880U 22062BC  24140.89507471  .00000777  00000-0  66909-4 0  9992,2 52880  53.2166  91.5614 0001265  84.9592 275.1544 15.08836694107102,6917.89,95.438,540.631,538.88,0.0
52880.0,STARLINK-4186,PAYLOAD,2024-05-20 05:25:50,15.08836063,0.0001298,53.2167,90.0753,86.4385,273.6756,7.2874e-05,8.72e-06,0.0,0 STARLINK-4186,1 52880U 22062BC  24141.22627612  .00000872  00000-0  72874-4 0  9994,2 52880  53.2167  90.0753 0001298  86.4385 273.6756 15.08836063106662,6917.892,95.438,540.655,538.859,0.0
52880.0,STARLINK-4186,PAYLOAD,2024-05-20 19:44:18,15.08830941,0.0001356,53.2172,87.4022,93.6799,266.4348,-3.4632e-05,-8.39e-06,0.0,0 STARLINK-4186,1 52880U 22062BC  24141.82244170 -.00000839  00000-0 -34632-4 0  9999,2 52880  53.2172  87.4022 0001356  93.6799 266.4348 15.08830941107242,6917.908,95.438,540.711,538.835,0.0
52880.0,STARLINK-4186,PAYLOAD,2024-05-21 03:41:14,15.08843703,0.0001356,53.2164,85.9155,96.8993,263.2153,0.00020212,2.931e-05,0.0,0 STARLINK-4186,1 52880U 22062BC  24142.15363832  .00002931  00000-0  20212-3 0  9994,2 52880  53.2164  85.9155 0001356  96.8993 263.2153 15.08843703107298,6917.869,95.437,540.672,538.796,0.0
52880.0,STARLINK-4186,PAYLOAD,2024-05-21 05:16:37,15.08845989,0.0001553,53.2169,85.6207,111.2998,248.816,0.00030202,4.523e-05,0.0,0 STARLINK-4186,1 52880U 22062BC  24142.21987768  .00004523  00000-0  30202-3 0  9990,2 52880  53.2169  85.6207 0001553 111.2998 248.8160 15.08845989106816,6917.862,95.437,540.801,538.653,0.0
52880.0,STARLINK-4186,PAYLOAD,2024-05-22 05:07:24,15.08848327,0.0001432,53.2175,81.1524,87.8136,272.3021,0.0002903,4.336e-05,0.0,0 STARLINK-4186,1 52880U 22062BC  24143.21347749  .00004336  00000-0  29030-3 0  9999,2 52880  53.2175  81.1524 0001432  87.8136 272.3021 15.08848327107452,6917.855,95.437,540.711,538.729,0.0
52880.0,STARLINK-4186,PAYLOAD,2024-05-23 04:58:11,15.08843671,0.0001958,53.2183,76.6916,81.0669,279.0545,0.00014565,2.031e-05,0.0,0 STARLINK-4186,1 52880U 22062BC  24144.20708191  .00002031  00000-0  14565-3 0  9998,2 52880  53.2183  76.6916 0001958  81.0669 279.0545 15.08843671107604,6917.869,95.437,541.089,538.38,0.0
52880.0,STARLINK-4186,PAYLOAD,2024-05-24 04:48:58,15.08852933,0.0001929,53.2193,72.2278,78.0298,282.091,0.00025859,3.831e-05,0.0,0 STARLINK-4186,1 52880U 22062BC  24145.20067753  .00003831  00000-0  25859-3 0  9998,2 52880  53.2193  72.2278 0001929  78.0298 282.0910 15.08852933107263,6917.841,95.437,541.04,538.371,0.0
52880.0,STARLINK-4186,PAYLOAD,2024-05-24 22:18:13,15.08843629,0.0001946,53.2183,68.9545,112.831,247.2888,2.0125e-05,3.2e-07,0.0,0 STARLINK-4186,1 52880U 22062BC  24145.92931751  .00000032  00000-0  20125-4 0  9997,2 52880  53.2183  68.9545 0001946 112.8310 247.2888 15.08843629107373,6917.869,95.437,541.081,538.388,0.0
52880.0,STARLINK-4186,PAYLOAD,2024-05-25 01:28:59,15.08840192,0.0001736,53.2182,68.3671,91.0295,269.0896,2.6497e-05,1.34e-06,0.0,0 STARLINK-4186,1 52880U 22062BC  24146.06180173  .00000134  00000-0  26497-4 0  9998,2 52880  53.2182  68.3671 0001736  91.0295 269.0896 15.08840192107882,6917.88,95.438,540.946,538.544,0.0
52880.0,STARLINK-4186,PAYLOAD,2024-05-26 04:30:32,15.08843064,0.0001961,53.2182,63.3136,126.559,233.5583,1.8141e-05,1e-08,0.0,0 STARLINK-4186,1 52880U 22062BC  24147.18788051  .00000001  00000-0  18141-4 0  9991,2 52880  53.2182  63.3136 0001961 126.5590 233.5583 15.08843064108055,6917.871,95.437,541.093,538.379,0.0
52880.0,STARLINK-4186,PAYLOAD,2024-05-26 18:49:01,15.08833341,0.0001735,53.218,60.6376,111.7021,248.4156,6.9576e-05,8.19e-06,0.0,0 STARLINK-4186,1 52880U 22062BC  24147.78404798  .00000819  00000-0  69576-4 0  9995,2 52880  53.2180  60.6376 0001735 111.7021 248.4156 15.08833341108141,6917.901,95.438,540.966,538.565,0.0
52880.0,STARLINK-4186,PAYLOAD,2024-05-26 21:59:47,15.08835323,0.0001719,53.2178,60.0427,112.3715,247.7459,8.62e-05,1.084e-05,0.0,0 STARLINK-4186,1 52880U 22062BC  24147.91652728  .00001084  00000-0  86200-4 0  9996,2 52880  53.2178  60.0427 0001719 112.3715 247.7459 15.08835323107675,6917.895,95.438,540.949,538.57,0.0
52880.0,STARLINK-4186,PAYLOAD,2024-05-27 10:42:52,15.08839932,0.0001466,53.2177,57.6675,116.6009,243.5134,-3.3029e-05,-8.14e-06,0.0,0 STARLINK-4186,1 52880U 22062BC  24148.44644638 -.00000814  00000-0 -33029-4 0  9999,2 52880  53.2177  57.6675 0001466 116.6009 243.5134 15.08839932107756,6917.881,95.438,540.76,538.731,0.0
52880.0,STARLINK-4186,PAYLOAD,2024-05-27 21:50:35,15.08838551,0.0001466,53.2182,55.582,108.2582,251.8569,0.00010251,1.344e-05,0.0,0 STARLINK-4186,1 52880U 22062BC  24148.91012848  .00001344  00000-0  10251-3 0  9991,2 52880  53.2182  55.5820 0001466 108.2582 251.8569 15.08838551107822,6917.885,95.438,540.764,538.736,0.0
52880.0,STARLINK-4186,PAYLOAD,2024-05-28 04:12:10,15.08791364,0.0001334,53.2176,54.3954,129.1304,230.9807,-0.00030957,-5.205e-05,0.0,0 STARLINK-4186,1 52880U 22062BC  24149.17512474 -.00005205  00000-0 -30957-3 0  9997,2 52880  53.2176  54.3954 0001334 129.1304 230.9807 15.08791364108350,6918.029,95.441,540.817,538.971,0.0
52880.0,STARLINK-4186,PAYLOAD,2024-05-28 10:33:39,15.08850568,0.0001135,53.2171,53.2046,103.3445,256.7674,0.00014434,2.011e-05,0.0,0 STARLINK-4186,1 52880U 22062BC  24149.44003832  .00002011  00000-0  14434-3 0  9992,2 52880  53.2171  53.2046 0001135 103.3445 256.7674 15.08850568108398,6917.848,95.437,540.498,538.928,0.0
52880.0,STARLINK-4186,PAYLOAD,2024-05-29 02:27:31,15.08849905,0.0001408,53.2177,50.2263,104.0965,256.0183,-1.4598e-05,-5.2e-06,0.0,0 STARLINK-4186,1 52880U 22062BC  24150.10244377 -.00000520  00000-0 -14598-4 0  9995,2 52880  53.2177  50.2263 0001408 104.0965 256.0183 15.08849905108492,6917.85,95.437,540.689,538.741,0.0
52880.0,STARLINK-4186,PAYLOAD,2024-05-29 21:32:08,15.08852533,0.0001717,53.2171,46.6648,133.2981,226.8154,-7.6284e-05,-1.502e-05,0.0,0 STARLINK-4186,1 52880U 22062BC  24150.89732605 -.00001502  00000-0 -76284-4 0  9998,2 52880  53.2171  46.6648 0001717 133.2981 226.8154 15.08852533108615,6917.842,95.437,540.895,538.519,0.0
52880.0,STARLINK-4186,PAYLOAD,2024-05-29 21:32:09,15.08844503,0.000187,53.218,46.6604,129.172,230.9439,2.0216e-05,3.4e-07,0.0,0 STARLINK-4186,1 52880U 22062BC  24150.89732802  .00000034  00000-0  20216-4 0  9998,2 52880  53.2180  46.6604 0001870 129.1720 230.9439 15.08844503108128,6917.867,95.437,541.025,538.438,0.0
52880.0,STARLINK-4186,PAYLOAD,2024-05-30 02:18:17,15.08862921,0.0001312,53.2177,45.7702,108.5604,251.5531,-0.00014712,-2.63e-05,0.0,0 STARLINK-4186,1 52880U 22062BC  24151.09604064 -.00002630  00000-0 -14712-3 0  9998,2 52880  53.2177  45.7702 0001312 108.5604 251.5531 15.08862921108649,6917.81,95.436,540.583,538.768,0.0
52880.0,STARLINK-4186,PAYLOAD,2024-05-30 21:22:55,15.08849897,0.0001651,53.2199,42.1961,73.5332,286.5841,0.00014297,1.989e-05,0.0,0 STARLINK-4186,1 52880U 22062BC  24151.89092319  .00001989  00000-0  14297-3 0  9992,2 52880  53.2199  42.1961 0001651  73.5332 286.5841 15.08849897108768,6917.85,95.437,540.857,538.573,0.0
52880.0,STARLINK-4186,PAYLOAD,2024-05-31 21:13:42,15.08844081,0.0001304,53.2185,37.7414,92.5345,267.5796,0.00010554,1.392e-05,0.0,0 STARLINK-4186,1 52880U 22062BC  24152.88452221  .00001392  00000-0  10554-3 0  9994,2 52880  53.2185  37.7414 0001304  92.5345 267.5796 15.08844081108911,6917.868,95.437,540.635,538.831,0.0
52880.0,STARLINK-4186,PAYLOAD,2024-05-31 22:49:05,15.0884404,0.0001369,53.2184,37.4448,91.2904,268.8245,9.5093e-05,1.226e-05,0.0,0 STARLINK-4186,1 52880U 22062BC  24152.95076218  .00001226  00000-0  95093-4 0  9998,2 52880  53.2184  37.4448 0001369  91.2904 268.8245 15.08844040108437,6917.868,95.437,540.68,538.786,0.0
52880.0,STARLINK-4186,PAYLOAD,2024-06-01 01:59:51,15.08851149,0.0001546,53.2191,36.8489,95.2469,264.87,8.7646e-05,1.108e-05,0.0,0 STARLINK-4186,1 52880U 22062BC  24153.08323730  .00001108  00000-0  87646-4 0  9991,2 52880  53.2191  36.8489 0001546  95.2469 264.8700 15.08851149108946,6917.846,95.437,540.781,538.642,0.0
52880.0,STARLINK-4186,PAYLOAD,2024-06-01 21:04:30,15.08838399,0.0001453,53.2181,33.2806,104.89,255.2253,-3.5923e-05,-8.6e-06,0.0,0 STARLINK-4186,1 52880U 22062BC  24153.87812809 -.00000860  00000-0 -35923-4 0  9995,2 52880  53.2181  33.2806 0001453 104.8900 255.2253 15.08838399109066,6917.885,95.438,540.755,538.745,0.0
52880.0,STARLINK-4186,PAYLOAD,2024-06-01 22:39:53,15.08838775,0.0001371,53.2178,32.9832,100.7871,259.3275,-2.8733e-05,-7.45e-06,0.0,0 STARLINK-4186,1 52880U 22062BC  24153.94436768 -.00000745  00000-0 -28733-4 0  9992,2 52880  53.2178  32.9832 0001371 100.7871 259.3275 15.08838775108581,6917.884,95.438,540.698,538.801,0.0
52880.0,STARLINK-4186,PAYLOAD,2024-06-02 16:09:08,15.08831317,0.0001509,53.2188,29.7133,98.7129,261.4035,-2.6817e-05,-7.15e-06,0.0,0 STARLINK-4186,1 52880U 22062BC  24154.67301556 -.00000715  00000-0 -26817-4 0  9997,2 52880  53.2188  29.7133 0001509  98.7129 261.4035 15.08831317109185,6917.907,95.438,540.816,538.728,0.0
52880.0,STARLINK-4186,PAYLOAD,2024-06-02 22:30:40,15.08835467,0.0001432,53.2186,28.5266,94.9329,265.1827,1.7778e-05,-5e-08,0.0,0 STARLINK-4186,1 52880U 22062BC  24154.93797321 -.00000005  00000-0  17778-4 0  9992,2 52880  53.2186  28.5266 0001432  94.9329 265.1827 15.08835467108732,6917.894,95.438,540.75,538.769,0.0
